SHIJIAN-28 (SJ-28)      
1 66549U 25277A   25359.56189755 -.00000337  00000+0  00000+0 0  9995
2 66549   4.9871 274.7549 0000997 127.1328  11.4336  1.00264850   417
CZ-7A R/B               
1 66550U 25277B   25357.24528279  .10979967  18895-4  68493-2 0  9991
2 66550  14.3426 263.9223 6609434 200.4471 110.5172  3.27661077   658
USA 568                 
1 66551U 24134K   25336.66670139 -.01709685  00000+0 -74303-2 0  9990
2 66551  53.1571 236.7807 0000717 110.7411 313.9012 15.87051116  2624
GLOBAL-33               
1 66554U 25267A   25360.29209396  .00014797  00000+0  47883-3 0  9994
2 66554  42.0213 338.7502 0004959 185.8962 174.1818 15.31789204  5481
STARLINK-35699          
1 66557U 25268A   25360.25003472 -.02042558  00000+0 -64143-1 0  9997
2 66557  43.0005  42.3030 0001223 256.1046  63.6506 15.35490008  6060
STARLINK-35695          
1 66558U 25268B   25360.25003472 -.02017560  00000+0 -62725-1 0  9997
2 66558  43.0004  42.2657 0001327 259.3553  76.0484 15.36330401  6061
STARLINK-35419          
1 66559U 25268C   25360.25003472 -.02067428  00000+0 -54357-1 0  9998
2 66559  43.0012  42.0853 0001438 273.2794 135.9521 15.41482916  6064
STARLINK-35411          
1 66560U 25268D   25360.25003472 -.02064707  00000+0 -53313-1 0  9998
2 66560  43.0008  42.0654 0001353 269.4979 147.8802 15.42013867  6068
STARLINK-35305          
1 66561U 25268E   25360.25003472 -.02025367  00000+0 -49308-1 0  9997
2 66561  43.0008  42.0125 0001329 279.8945 159.5115 15.43673902  6063
STARLINK-35579          
1 66562U 25268F   25360.25003472 -.02035695  00000+0 -51020-1 0  9997
2 66562  43.0004  42.0386 0001435 278.2765 150.3963 15.42839817  6068
STARLINK-35437          
1 66563U 25268G   25360.25003472 -.02026982  00000+0 -47952-1 0  9996
2 66563  43.0005  41.9870 0001349 282.5619 167.0143 15.44512358  6016
STARLINK-35358          
1 66564U 25268H   25360.25003472 -.02051530  00000+0 -47207-1 0  9997
2 66564  43.0002  41.9619 0001340 277.9085 181.2798 15.45358600  6069
