CCSDS_OMM_VERS = 2.0
CREATION_DATE  = 
ORIGINATOR     = 

OBJECT_NAME    = SHIJIAN-28 (SJ-28)
OBJECT_ID      = 2025-277A
CENTER_NAME    = EARTH
REF_FRAME      = TEME
TIME_SYSTEM    = UTC
MEAN_ELEMENT_THEORY = SGP/SGP4

EPOCH          = 2025-12-25T13:29:07.948320
MEAN_MOTION    = 1.00264850
ECCENTRICITY   = .0000997
INCLINATION    = 4.9871
RA_OF_ASC_NODE = 274.7549
ARG_OF_PERICENTER = 127.1328
MEAN_ANOMALY   = 11.4336

EPHEMERIS_TYPE = 0
CLASSIFICATION_TYPE = U
NORAD_CAT_ID   = 66549
ELEMENT_SET_NO = 999
REV_AT_EPOCH   = 41
BSTAR          = 0
MEAN_MOTION_DOT = -.337E-5
MEAN_MOTION_DDOT = 0

CCSDS_OMM_VERS = 2.0
CREATION_DATE  = 
ORIGINATOR     = 

OBJECT_NAME    = CZ-7A R/B
OBJECT_ID      = 2025-277B
CENTER_NAME    = EARTH
REF_FRAME      = TEME
TIME_SYSTEM    = UTC
MEAN_ELEMENT_THEORY = SGP/SGP4

EPOCH          = 2025-12-23T05:53:12.433056
MEAN_MOTION    = 3.27661077
ECCENTRICITY   = .66094342
INCLINATION    = 14.3426
RA_OF_ASC_NODE = 263.9223
ARG_OF_PERICENTER = 200.4471
MEAN_ANOMALY   = 110.5172

EPHEMERIS_TYPE = 0
CLASSIFICATION_TYPE = U
NORAD_CAT_ID   = 66550
ELEMENT_SET_NO = 999
REV_AT_EPOCH   = 65
BSTAR          = .68493476E-2
MEAN_MOTION_DOT = .10979967E+0
MEAN_MOTION_DDOT = .18894821E-4

CCSDS_OMM_VERS = 2.0
CREATION_DATE  = 
ORIGINATOR     = 

OBJECT_NAME    = USA 568
OBJECT_ID      = 2024-134K
CENTER_NAME    = EARTH
REF_FRAME      = TEME
TIME_SYSTEM    = UTC
MEAN_ELEMENT_THEORY = SGP/SGP4

EPOCH          = 2025-12-02T16:00:03.000096
MEAN_MOTION    = 15.87051116
ECCENTRICITY   = .0000717
INCLINATION    = 53.1571
RA_OF_ASC_NODE = 236.7807
ARG_OF_PERICENTER = 110.7411
MEAN_ANOMALY   = 313.9012

EPHEMERIS_TYPE = 0
CLASSIFICATION_TYPE = U
NORAD_CAT_ID   = 66551
ELEMENT_SET_NO = 999
REV_AT_EPOCH   = 262
BSTAR          = -.74303E-2
MEAN_MOTION_DOT = -.1709685E-1
MEAN_MOTION_DDOT = 0

CCSDS_OMM_VERS = 2.0
CREATION_DATE  = 
ORIGINATOR     = 

OBJECT_NAME    = GLOBAL-33
OBJECT_ID      = 2025-267A
CENTER_NAME    = EARTH
REF_FRAME      = TEME
TIME_SYSTEM    = UTC
MEAN_ELEMENT_THEORY = SGP/SGP4

EPOCH          = 2025-12-26T07:00:36.918144
MEAN_MOTION    = 15.31789204
ECCENTRICITY   = .00049594
INCLINATION    = 42.0213
RA_OF_ASC_NODE = 338.7502
ARG_OF_PERICENTER = 185.8962
MEAN_ANOMALY   = 174.1818

EPHEMERIS_TYPE = 0
CLASSIFICATION_TYPE = U
NORAD_CAT_ID   = 66554
ELEMENT_SET_NO = 999
REV_AT_EPOCH   = 548
BSTAR          = .47882598E-3
MEAN_MOTION_DOT = .14797E-3
MEAN_MOTION_DDOT = 0

CCSDS_OMM_VERS = 2.0
CREATION_DATE  = 
ORIGINATOR     = 

OBJECT_NAME    = STARLINK-35699
OBJECT_ID      = 2025-268A
CENTER_NAME    = EARTH
REF_FRAME      = TEME
TIME_SYSTEM    = UTC
MEAN_ELEMENT_THEORY = SGP/SGP4

EPOCH          = 2025-12-26T06:00:02.999808
MEAN_MOTION    = 15.35490008
ECCENTRICITY   = .00012239
INCLINATION    = 43.0005
RA_OF_ASC_NODE = 42.3030
ARG_OF_PERICENTER = 256.1046
MEAN_ANOMALY   = 63.6506

EPHEMERIS_TYPE = 0
CLASSIFICATION_TYPE = U
NORAD_CAT_ID   = 66557
ELEMENT_SET_NO = 999
REV_AT_EPOCH   = 606
BSTAR          = -.64142997E-1
MEAN_MOTION_DOT = -.2042558E-1
MEAN_MOTION_DDOT = 0

CCSDS_OMM_VERS = 2.0
CREATION_DATE  = 
ORIGINATOR     = 

OBJECT_NAME    = STARLINK-35695
OBJECT_ID      = 2025-268B
CENTER_NAME    = EARTH
REF_FRAME      = TEME
TIME_SYSTEM    = UTC
MEAN_ELEMENT_THEORY = SGP/SGP4

EPOCH          = 2025-12-26T06:00:02.999808
MEAN_MOTION    = 15.36330401
ECCENTRICITY   = .00013275
INCLINATION    = 43.0004
RA_OF_ASC_NODE = 42.2657
ARG_OF_PERICENTER = 259.3553
MEAN_ANOMALY   = 76.0484

EPHEMERIS_TYPE = 0
CLASSIFICATION_TYPE = U
NORAD_CAT_ID   = 66558
ELEMENT_SET_NO = 999
REV_AT_EPOCH   = 606
BSTAR          = -.62724567E-1
MEAN_MOTION_DOT = -.201756E-1
MEAN_MOTION_DDOT = 0

CCSDS_OMM_VERS = 2.0
CREATION_DATE  = 
ORIGINATOR     = 

OBJECT_NAME    = STARLINK-35419
OBJECT_ID      = 2025-268C
CENTER_NAME    = EARTH
REF_FRAME      = TEME
TIME_SYSTEM    = UTC
MEAN_ELEMENT_THEORY = SGP/SGP4

EPOCH          = 2025-12-26T06:00:02.999808
MEAN_MOTION    = 15.41482916
ECCENTRICITY   = .00014388
INCLINATION    = 43.0012
RA_OF_ASC_NODE = 42.0853
ARG_OF_PERICENTER = 273.2794
MEAN_ANOMALY   = 135.9521

EPHEMERIS_TYPE = 0
CLASSIFICATION_TYPE = U
NORAD_CAT_ID   = 66559
ELEMENT_SET_NO = 999
REV_AT_EPOCH   = 606
BSTAR          = -.54356976E-1
MEAN_MOTION_DOT = -.2067428E-1
MEAN_MOTION_DDOT = 0

CCSDS_OMM_VERS = 2.0
CREATION_DATE  = 
ORIGINATOR     = 

OBJECT_NAME    = STARLINK-35411
OBJECT_ID      = 2025-268D
CENTER_NAME    = EARTH
REF_FRAME      = TEME
TIME_SYSTEM    = UTC
MEAN_ELEMENT_THEORY = SGP/SGP4

EPOCH          = 2025-12-26T06:00:02.999808
MEAN_MOTION    = 15.42013867
ECCENTRICITY   = .00013538
INCLINATION    = 43.0008
RA_OF_ASC_NODE = 42.0654
ARG_OF_PERICENTER = 269.4979
MEAN_ANOMALY   = 147.8802

EPHEMERIS_TYPE = 0
CLASSIFICATION_TYPE = U
NORAD_CAT_ID   = 66560
ELEMENT_SET_NO = 999
REV_AT_EPOCH   = 606
BSTAR          = -.53313418E-1
MEAN_MOTION_DOT = -.2064707E-1
MEAN_MOTION_DDOT = 0

CCSDS_OMM_VERS = 2.0
CREATION_DATE  = 
ORIGINATOR     = 

OBJECT_NAME    = STARLINK-35305
OBJECT_ID      = 2025-268E
CENTER_NAME    = EARTH
REF_FRAME      = TEME
TIME_SYSTEM    = UTC
MEAN_ELEMENT_THEORY = SGP/SGP4

EPOCH          = 2025-12-26T06:00:02.999808
MEAN_MOTION    = 15.43673902
ECCENTRICITY   = .0001329
INCLINATION    = 43.0008
RA_OF_ASC_NODE = 42.0125
ARG_OF_PERICENTER = 279.8945
MEAN_ANOMALY   = 159.5115

EPHEMERIS_TYPE = 0
CLASSIFICATION_TYPE = U
NORAD_CAT_ID   = 66561
ELEMENT_SET_NO = 999
REV_AT_EPOCH   = 606
BSTAR          = -.49307854E-1
MEAN_MOTION_DOT = -.2025367E-1
MEAN_MOTION_DDOT = 0

CCSDS_OMM_VERS = 2.0
CREATION_DATE  = 
ORIGINATOR     = 

OBJECT_NAME    = STARLINK-35579
OBJECT_ID      = 2025-268F
CENTER_NAME    = EARTH
REF_FRAME      = TEME
TIME_SYSTEM    = UTC
MEAN_ELEMENT_THEORY = SGP/SGP4

EPOCH          = 2025-12-26T06:00:02.999808
MEAN_MOTION    = 15.42839817
ECCENTRICITY   = .00014358
INCLINATION    = 43.0004
RA_OF_ASC_NODE = 42.0386
ARG_OF_PERICENTER = 278.2765
MEAN_ANOMALY   = 150.3963

EPHEMERIS_TYPE = 0
CLASSIFICATION_TYPE = U
NORAD_CAT_ID   = 66562
ELEMENT_SET_NO = 999
REV_AT_EPOCH   = 606
BSTAR          = -.51019957E-1
MEAN_MOTION_DOT = -.2035695E-1
MEAN_MOTION_DDOT = 0

CCSDS_OMM_VERS = 2.0
CREATION_DATE  = 
ORIGINATOR     = 

OBJECT_NAME    = STARLINK-35437
OBJECT_ID      = 2025-268G
CENTER_NAME    = EARTH
REF_FRAME      = TEME
TIME_SYSTEM    = UTC
MEAN_ELEMENT_THEORY = SGP/SGP4

EPOCH          = 2025-12-26T06:00:02.999808
MEAN_MOTION    = 15.44512358
ECCENTRICITY   = .00013495
INCLINATION    = 43.0005
RA_OF_ASC_NODE = 41.9870
ARG_OF_PERICENTER = 282.5619
MEAN_ANOMALY   = 167.0143

EPHEMERIS_TYPE = 0
CLASSIFICATION_TYPE = U
NORAD_CAT_ID   = 66563
ELEMENT_SET_NO = 999
REV_AT_EPOCH   = 601
BSTAR          = -.47952308E-1
MEAN_MOTION_DOT = -.2026982E-1
MEAN_MOTION_DDOT = 0

CCSDS_OMM_VERS = 2.0
CREATION_DATE  = 
ORIGINATOR     = 

OBJECT_NAME    = STARLINK-35358
OBJECT_ID      = 2025-268H
CENTER_NAME    = EARTH
REF_FRAME      = TEME
TIME_SYSTEM    = UTC
MEAN_ELEMENT_THEORY = SGP/SGP4

EPOCH          = 2025-12-26T06:00:02.999808
MEAN_MOTION    = 15.45358600
ECCENTRICITY   = .00013403
INCLINATION    = 43.0002
RA_OF_ASC_NODE = 41.9619
ARG_OF_PERICENTER = 277.9085
MEAN_ANOMALY   = 181.2798

EPHEMERIS_TYPE = 0
CLASSIFICATION_TYPE = U
NORAD_CAT_ID   = 66564
ELEMENT_SET_NO = 999
REV_AT_EPOCH   = 606
BSTAR          = -.47206571E-1
MEAN_MOTION_DOT = -.205153E-1
MEAN_MOTION_DDOT = 0

